NORAD_CAT_ID,OBJECT_NAME,OBJECT_TYPE,EPOCH,MEAN_MOTION,ECCENTRICITY,INCLINATION,RA_OF_ASC_NODE,ARG_OF_PERICENTER,MEAN_ANOMALY,BSTAR,MEAN_MOTION_DOT,MEAN_MOTION_DDOT,TLE_LINE0,TLE_LINE1,TLE_LINE2,SEMIMAJOR_AXIS,PERIOD,APOGEE,PERIGEE,DECAYED
49151.0,STARLINK-3102,PAYLOAD,2024-02-26 22:32:35,14.98330621,0.0002146,70.0011,324.6666,274.1135,85.9779,8.4204e-06,8e-08,0.0,0 STARLINK-3102,1 49151U 21082X   24057.93929743  .00000008  00000-0  84204-5 0  9998,2 49151  70.0011 324.6666 0002146 274.1135  85.9779 14.98330621137058,6950.191,96.107,573.547,570.564,0.0
49151.0,STARLINK-3102,PAYLOAD,2024-02-27 03:20:58,14.98339734,0.0002261,70.0003,324.1612,272.5419,87.5481,0.00016548,1.883e-05,0.0,0 STARLINK-3102,1 49151U 21082X   24058.13956688  .00001883  00000-0  16548-3 0  9995,2 49151  70.0003 324.1612 0002261 272.5419  87.5481 14.98339734137096,6950.163,96.106,573.599,570.456,0.0
49151.0,STARLINK-3102,PAYLOAD,2024-02-27 11:21:39,14.98332161,0.0001958,70.0024,323.3211,285.9621,74.1322,-5.0849e-05,-6.99e-06,0.0,0 STARLINK-3102,1 49151U 21082X   24058.47337518 -.00000699  00000-0 -50849-4 0  9996,2 49151  70.0024 323.3211 0001958 285.9621  74.1322 14.98332161137149,6950.186,96.107,573.412,570.69,0.0
49151.0,STARLINK-3102,PAYLOAD,2024-02-27 22:34:36,14.98325644,0.0002677,70.0009,322.1417,268.2649,91.8204,-4.5594e-05,-6.37e-06,0.0,0 STARLINK-3102,1 49151U 21082X   24058.94069857 -.00000637  00000-0 -45594-4 0  9999,2 49151  70.0009 322.1417 0002677 268.2649  91.8204 14.98325644137200,6950.206,96.107,573.932,570.211,0.0
49151.0,STARLINK-3102,PAYLOAD,2024-02-28 03:23:00,14.98328067,0.0002739,70.0004,321.6361,267.7297,92.3549,-7.8404e-05,-1.028e-05,0.0,0 STARLINK-3102,1 49151U 21082X   24059.14097798 -.00001028  00000-0 -78404-4 0  9998,2 49151  70.0004 321.6361 0002739 267.7297  92.3549 14.98328067137232,6950.199,96.107,573.968,570.16,0.0
49151.0,STARLINK-3102,PAYLOAD,2024-02-28 19:24:20,14.98333539,0.0002797,70.0001,319.953,265.9786,94.1053,-7.1703e-05,-9.48e-06,0.0,0 STARLINK-3102,1 49151U 21082X   24059.80857604 -.00000948  00000-0 -71703-4 0  9996,2 49151  70.0001 319.9530 0002797 265.9786  94.1053 14.98333539137346,6950.182,96.107,573.991,570.103,0.0
49151.0,STARLINK-3102,PAYLOAD,2024-02-28 22:36:37,14.98331854,0.0002755,70.0002,319.6163,265.0508,95.0336,-5.1794e-05,-7.11e-06,0.0,0 STARLINK-3102,1 49151U 21082X   24059.94209631 -.00000711  00000-0 -51794-4 0  9998,2 49151  70.0002 319.6163 0002755 265.0508  95.0336 14.98331854137356,6950.187,96.107,573.967,570.137,0.0
49151.0,STARLINK-3102,PAYLOAD,2024-02-29 03:25:01,14.98335087,0.0002826,70.0001,319.1113,267.4151,92.6684,-5.3878e-05,-7.36e-06,0.0,0 STARLINK-3102,1 49151U 21082X   24060.14237402 -.00000736  00000-0 -53878-4 0  9991,2 49151  70.0001 319.1113 0002826 267.4151  92.6684 14.98335087137388,6950.177,96.107,574.006,570.078,0.0
49151.0,STARLINK-3102,PAYLOAD,2024-02-29 19:26:21,14.9832964,0.0002801,70.0001,317.4285,268.4673,91.6165,0.00011152,1.238e-05,0.0,0 STARLINK-3102,1 49151U 21082X   24060.80997287  .00001238  00000-0  11152-3 0  9992,2 49151  70.0001 317.4285 0002801 268.4673  91.6165 14.98329640137495,6950.194,96.107,574.006,570.112,0.0
49151.0,STARLINK-3102,PAYLOAD,2024-02-29 21:02:29,14.9833044,0.000279,70.0002,317.2602,268.6442,91.4397,0.0001174,1.308e-05,0.0,0 STARLINK-3102,1 49151U 21082X   24060.87673228  .00001308  00000-0  11740-3 0  9996,2 49151  70.0002 317.2602 0002790 268.6442  91.4397 14.98330440137495,6950.192,96.107,573.996,570.117,0.0
49151.0,STARLINK-3102,PAYLOAD,2024-03-01 09:51:34,14.98328919,0.0002697,70.0004,315.9144,265.6368,94.4483,3.9166e-05,3.74e-06,0.0,0 STARLINK-3102,1 49151U 21082X   24061.41081508  .00000374  00000-0  39166-4 0  9996,2 49151  70.0004 315.9144 0002697 265.6368  94.4483 14.98328919137579,6950.196,96.107,573.936,570.187,0.0
49151.0,STARLINK-3102,PAYLOAD,2024-03-01 19:28:22,14.98330619,0.0002682,70.0005,314.9046,265.4522,94.6331,3.5402e-05,3.29e-06,0.0,0 STARLINK-3102,1 49151U 21082X   24061.81137395  .00000329  00000-0  35402-4 0  9995,2 49151  70.0005 314.9046 0002682 265.4522  94.6331 14.98330619137646,6950.191,96.107,573.92,570.192,0.0
49151.0,STARLINK-3102,PAYLOAD,2024-03-01 21:04:30,14.9832975,0.0002712,70.0004,314.7362,265.0049,95.08,2.256e-05,1.76e-06,0.0,0 STARLINK-3102,1 49151U 21082X   24061.87813476  .00000176  00000-0  22560-4 0  9993,2 49151  70.0004 314.7362 0002712 265.0049  95.0800 14.98329750137648,6950.194,96.107,573.944,570.174,0.0
49151.0,STARLINK-3102,PAYLOAD,2024-03-02 01:52:54,14.98331016,0.000269,69.9999,314.2305,265.6225,94.4627,3.2576e-05,2.96e-06,0.0,0 STARLINK-3102,1 49151U 21082X   24062.07841353  .00000296  00000-0  32576-4 0  9992,2 49151  69.9999 314.2305 0002690 265.6225  94.4627 14.98331016137678,6950.19,96.107,573.924,570.185,0.0
49151.0,STARLINK-3102,PAYLOAD,2024-03-02 19:30:23,14.98334128,0.0002814,69.9994,312.3793,267.011,93.0727,-3.9411e-05,-5.63e-06,0.0,0 STARLINK-3102,1 49151U 21082X   24062.81277265 -.00000563  00000-0 -39411-4 0  9993,2 49151  69.9994 312.3793 0002814 267.0110  93.0727 14.98334128137796,6950.18,96.107,574.001,570.089,0.0
49151.0,STARLINK-3102,PAYLOAD,2024-03-02 21:06:31,14.98332731,0.0002691,69.9997,312.2109,261.7849,98.3005,-4.9942e-05,-6.89e-06,0.0,0 STARLINK-3102,1 49151U 21082X   24062.87953347 -.00000689  00000-0 -49942-4 0  9990,2 49151  69.9997 312.2109 0002691 261.7849  98.3005 14.98332731137797,6950.184,96.107,573.92,570.179,0.0
49151.0,STARLINK-3102,PAYLOAD,2024-03-03 09:55:36,14.98328786,0.000294,69.9994,310.8626,264.3208,95.7616,-2.6644e-05,-4.11e-06,0.0,0 STARLINK-3102,1 49151U 21082X   24063.41361426 -.00000411  00000-0 -26644-4 0  9999,2 49151  69.9994 310.8626 0002940 264.3208  95.7616 14.98328786137870,6950.197,96.107,574.105,570.018,0.0
49151.0,STARLINK-3102,PAYLOAD,2024-03-03 19:32:24,14.98327692,0.0002942,69.9992,309.8524,269.9549,90.1273,6.5192e-05,6.85e-06,0.0,0 STARLINK-3102,1 49151U 21082X   24063.81417279  .00000685  00000-0  65192-4 0  9993,2 49151  69.9992 309.8524 0002942 269.9549  90.1273 14.98327692137945,6950.2,96.107,574.11,570.02,0.0
49151.0,STARLINK-3102,PAYLOAD,2024-03-03 21:08:32,14.98313114,0.0002875,69.9991,309.6842,268.1429,91.9401,0.00035721,4.17e-05,0.0,0 STARLINK-3102,1 49151U 21082X   24063.88093702  .00004170  00000-0  35721-3 0  9998,2 49151  69.9991 309.6842 0002875 268.1429  91.9401 14.98313114137944,6950.245,96.108,574.108,570.112,0.0
49151.0,STARLINK-3102,PAYLOAD,2024-03-04 01:56:56,14.98334061,0.0002791,69.9994,309.1795,267.999,92.0849,9.4149e-05,1.031e-05,0.0,0 STARLINK-3102,1 49151U 21082X   24064.08120805  .00001031  00000-0  94149-4 0  9999,2 49151  69.9994 309.1795 0002791 267.9990  92.0849 14.98334061137982,6950.18,96.107,573.985,570.106,0.0
49151.0,STARLINK-3102,PAYLOAD,2024-03-04 09:57:36,14.98336155,0.0002643,69.9995,308.3377,273.77,86.3157,4.1944e-05,4.08e-06,0.0,0 STARLINK-3102,1 49151U 21082X   24064.41500750  .00000408  00000-0  41944-4 0  9999,2 49151  69.9995 308.3377 0002643 273.7700  86.3157 14.98336155138020,6950.174,96.107,573.876,570.202,0.0
49151.0,STARLINK-3102,PAYLOAD,2024-03-04 22:46:41,14.9833398,0.0002779,69.9994,306.991,268.1728,91.9113,5.3017e-05,5.4e-06,0.0,0 STARLINK-3102,1 49151U 21082X   24064.94908628  .00000540  00000-0  53017-4 0  9994,2 49151  69.9994 306.9910 0002779 268.1728  91.9113 14.98333980138100,6950.181,96.107,573.977,570.114,0.0
49151.0,STARLINK-3102,PAYLOAD,2024-03-05 01:58:57,14.98335286,0.0002774,69.9994,306.6543,268.4173,91.6668,6.5915e-05,6.94e-06,0.0,0 STARLINK-3102,1 49151U 21082X   24065.08260473  .00000694  00000-0  65915-4 0  9999,2 49151  69.9994 306.6543 0002774 268.4173  91.6668 14.98335286138137,6950.177,96.107,573.97,570.114,0.0
49151.0,STARLINK-3102,PAYLOAD,2024-03-05 19:36:26,14.98327815,0.0002688,69.9996,304.8026,268.7316,91.3535,-3.9595e-05,-5.65e-06,0.0,0 STARLINK-3102,1 49151U 21082X   24065.81697218 -.00000565  00000-0 -39595-4 0  9995,2 49151  69.9996 304.8026 0002688 268.7316  91.3535 14.98327815138242,6950.2,96.107,573.933,570.196,0.0
49151.0,STARLINK-3102,PAYLOAD,2024-03-06 02:00:58,14.98327166,0.0002774,69.9996,304.1294,268.5127,91.5714,-7.6392e-05,-1.004e-05,0.0,0 STARLINK-3102,1 49151U 21082X   24066.08401407 -.00001004  00000-0 -76392-4 0  9993,2 49151  69.9996 304.1294 0002774 268.5127  91.5714 14.98327166138279,6950.202,96.107,573.995,570.139,0.0
49151.0,STARLINK-3102,PAYLOAD,2024-03-06 19:38:27,14.9832842,0.0002826,69.9994,302.2782,269.3914,90.6921,-3.8919e-05,-5.57e-06,0.0,0 STARLINK-3102,1 49151U 21082X   24066.81837264 -.00000557  00000-0 -38919-4 0  9993,2 49151  69.9994 302.2782 0002826 269.3914  90.6921 14.98328420138396,6950.198,96.107,574.027,570.099,0.0
49151.0,STARLINK-3102,PAYLOAD,2024-03-07 08:27:31,14.98333685,0.0002892,69.9993,300.9318,262.9471,97.1359,-6.9487e-05,-9.22e-06,0.0,0 STARLINK-3102,1 49151U 21082X   24067.35244982 -.00000922  00000-0 -69487-4 0  9992,2 49151  69.9993 300.9318 0002892 262.9471  97.1359 14.98333685138469,6950.181,96.107,574.056,570.037,0.0
49151.0,STARLINK-3102,PAYLOAD,2024-03-08 02:05:00,14.98329703,0.0002894,69.999,299.0799,267.9746,92.1082,0.00011309,1.257e-05,0.0,0 STARLINK-3102,1 49151U 21082X   24068.08680872  .00001257  00000-0  11309-3 0  9994,2 49151  69.9990 299.0799 0002894 267.9746  92.1082 14.98329703138586,6950.194,96.107,574.07,570.047,0.0
49151.0,STARLINK-3102,PAYLOAD,2024-03-08 08:29:32,14.98328522,0.0002847,69.999,298.4061,269.8384,90.2449,5.5732e-05,5.72e-06,0.0,0 STARLINK-3102,1 49151U 21082X   24068.35385143  .00000572  00000-0  55732-4 0  9995,2 49151  69.9990 298.4061 0002847 269.8384  90.2449 14.98328522138616,6950.197,96.107,574.041,570.084,0.0
49151.0,STARLINK-3102,PAYLOAD,2024-03-08 21:18:37,14.98328904,0.0002919,69.9988,297.0597,268.2471,91.8353,0.00013664,1.538e-05,0.0,0 STARLINK-3102,1 49151U 21082X   24068.88792835  .00001538  00000-0  13664-3 0  9993,2 49151  69.9988 297.0597 0002919 268.2471  91.8353 14.98328904138695,6950.196,96.107,574.09,570.033,0.0
